IRIDIUM 57              
1 25273U 98019B   24277.48268070  .00002355  00000+0  81340-3 0  9996
2 25273  86.3918 252.7294 0002330  89.6490 270.4973 14.35443229387952
IRIDIUM 63              
1 25286U 98021B   24277.46354901  .00002504  00000+0  85487-3 0  9992
2 25286  86.4057 189.7031 0002426  78.5413 281.6056 14.36051984386990
IRIDIUM 69              
1 25319U 98026A   24277.83788718  .00004330  00000+0  13598-2 0  9994
2 25319  86.4042 203.5863 0004030 114.9870 245.1748 14.40335346386393
IRIDIUM 71              
1 25320U 98026B   24277.32856979  .00003070  00000+0  95703-3 0  9994
2 25320  86.4047 198.5462 0001947 141.3013 218.8326 14.40621212386608
IRIDIUM 73              
1 25344U 98032C   24277.72994224  .00003383  00000+0  85171-3 0  9992
2 25344  86.4461 155.6799 0002709  95.5157 264.6357 14.50947853393667
IRIDIUM 82              
1 25467U 98051A   24277.37003655  .00031900  00000+0  14165-2 0  9999
2 25467  86.3733 234.2308 0116657 179.0431 181.1057 15.15385796384849
